[{"OBJECT_NAME":"PUNCH-WFI 2 (SMEX 15C)","OBJECT_ID":"2025-047D","EPOCH":"2026-03-09T22:37:47.775648","MEAN_MOTION":14.74227311,"ECCENTRICITY":0.00102861,"INCLINATION":97.9559,"RA_OF_ASC_NODE":255.8558,"ARG_OF_PERICENTER":135.6777,"MEAN_ANOMALY":224.5257,"EPHEMERIS_TYPE":0,"CLASSIFICATION_TYPE":"U","NORAD_CAT_ID":63181,"ELEMENT_SET_NO":999,"REV_AT_EPOCH":5343,"BSTAR":0.00015546473,"MEAN_MOTION_DOT":9.78e-6,"MEAN_MOTION_DDOT":0},{"OBJECT_NAME":"OPS 8180 (STP RADSAT)","OBJECT_ID":"1972-076B","EPOCH":"2026-03-09T21:58:12.443520","MEAN_MOTION":14.70884899,"ECCENTRICITY":0.0008904,"INCLINATION":98.6422,"RA_OF_ASC_NODE":46.8623,"ARG_OF_PERICENTER":344.923,"MEAN_ANOMALY":15.1707,"EPHEMERIS_TYPE":0,"CLASSIFICATION_TYPE":"U","NORAD_CAT_ID":6217,"ELEMENT_SET_NO":999,"REV_AT_EPOCH":82419,"BSTAR":0.00019801461,"MEAN_MOTION_DOT":1.156e-5,"MEAN_MOTION_DDOT":0}]
